{
  "type": "FeatureCollection",
  "features": [
    {
      "type": "Feature",
      "properties": {
        "norad_id": 38487,
        "name": "COSMOS 2251 DEB",
        "group": "cosmos-2251-debris",
        "lat": -73.87018045211771,
        "lon": -70.29220558481784,
        "alt_km": 518.3613132551945,
        "timestamp": "2025-12-22T11:33:20.838160+00:00",
        "meta_object_name": "COSMOS 2251 DEB",
        "meta_object_id": "1993-036BTX",
        "meta_epoch": "2025-12-21T18:32:44.642688",
        "meta_mean_motion": 15.1793295,
        "meta_eccentricity": 0.0020646,
        "meta_inclination": 73.9735,
        "meta_ra_of_asc_node": 14.8819,
        "meta_arg_of_pericenter": 185.3276,
        "meta_mean_anomaly": 174.7704,
        "meta_ephemeris_type": 0,
        "meta_classification_type": "U",
        "meta_norad_cat_id": 38487,
        "meta_element_set_no": 999,
        "meta_rev_at_epoch": 66937,
        "meta_bstar": 0.0019265,
        "meta_mean_motion_dot": 0.00039496,
        "meta_mean_motion_ddot": 0,
        "tle_line1": "1 38487U 93036BTX 25355.77273892  .00039496  00000+0  19265-2 0  9991",
        "tle_line2": "2 38487  73.9735  14.8819 0020646 185.3276 174.7704 15.17932950669370"
      },
      "geometry": {
        "type": "Point",
        "coordinates": [
          -70.29220558481784,
          -73.87018045211771
        ]
      }
    },
    {
      "type": "Feature",
      "properties": {
        "norad_id": 39109,
        "name": "COSMOS 2251 DEB",
        "group": "cosmos-2251-debris",
        "lat": -10.847939746654127,
        "lon": -156.96737927812123,
        "alt_km": 631.0896779486338,
        "timestamp": "2025-12-22T11:33:20.838170+00:00",
        "meta_object_name": "COSMOS 2251 DEB",
        "meta_object_id": "1993-036BTY",
        "meta_epoch": "2025-12-19T23:30:41.180256",
        "meta_mean_motion": 14.70762004,
        "meta_eccentricity": 0.005957,
        "meta_inclination": 74.0412,
        "meta_ra_of_asc_node": 211.0292,
        "meta_arg_of_pericenter": 312.7483,
        "meta_mean_anomaly": 114.4468,
        "meta_ephemeris_type": 0,
        "meta_classification_type": "U",
        "meta_norad_cat_id": 39109,
        "meta_element_set_no": 999,
        "meta_rev_at_epoch": 65280,
        "meta_bstar": 0.00029802,
        "meta_mean_motion_dot": 1.835e-05,
        "meta_mean_motion_ddot": 0,
        "tle_line1": "1 39109U 93036BTY 25353.97964329  .00001835  00000+0  29802-3 0  9990",
        "tle_line2": "2 39109  74.0412 211.0292 0059570 312.7483 114.4468 14.70762004652803"
      },
      "geometry": {
        "type": "Point",
        "coordinates": [
          -156.96737927812123,
          -10.847939746654127
        ]
      }
    },
    {
      "type": "Feature",
      "properties": {
        "norad_id": 39110,
        "name": "COSMOS 2251 DEB",
        "group": "cosmos-2251-debris",
        "lat": -41.76871807196458,
        "lon": -122.64874459100345,
        "alt_km": 614.5929441531762,
        "timestamp": "2025-12-22T11:33:20.838181+00:00",
        "meta_object_name": "COSMOS 2251 DEB",
        "meta_object_id": "1993-036BTZ",
        "meta_epoch": "2025-12-17T22:04:59.920608",
        "meta_mean_motion": 14.72312711,
        "meta_eccentricity": 0.00972569,
        "meta_inclination": 73.9594,
        "meta_ra_of_asc_node": 51.3772,
        "meta_arg_of_pericenter": 282.7235,
        "meta_mean_anomaly": 255.0933,
        "meta_ephemeris_type": 0,
        "meta_classification_type": "U",
        "meta_norad_cat_id": 39110,
        "meta_element_set_no": 999,
        "meta_rev_at_epoch": 62560,
        "meta_bstar": 0.00028872963,
        "meta_mean_motion_dot": 1.929e-05,
        "meta_mean_motion_ddot": 0,
        "tle_line1": "1 39110U 93036BTZ 25351.92013797  .00001929  00000+0  28873-3 0  9990",
        "tle_line2": "2 39110  73.9594  51.3772 0097256 282.7235 255.0933 14.72312711625601"
      },
      "geometry": {
        "type": "Point",
        "coordinates": [
          -122.64874459100345,
          -41.76871807196458
        ]
      }
    },
    {
      "type": "Feature",
      "properties": {
        "norad_id": 39111,
        "name": "COSMOS 2251 DEB",
        "group": "cosmos-2251-debris",
        "lat": -32.69537634775448,
        "lon": -148.5355055333164,
        "alt_km": 528.665677312928,
        "timestamp": "2025-12-22T11:33:20.838190+00:00",
        "meta_object_name": "COSMOS 2251 DEB",
        "meta_object_id": "1993-036BUA",
        "meta_epoch": "2025-12-01T22:58:55.551360",
        "meta_mean_motion": 15.11912111,
        "meta_eccentricity": 0.00109111,
        "meta_inclination": 74.0059,
        "meta_ra_of_asc_node": 63.5328,
        "meta_arg_of_pericenter": 39.1207,
        "meta_mean_anomaly": 321.0773,
        "meta_ephemeris_type": 0,
        "meta_classification_type": "U",
        "meta_norad_cat_id": 39111,
        "meta_element_set_no": 999,
        "meta_rev_at_epoch": 8982,
        "meta_bstar": 0.0056424119,
        "meta_mean_motion_dot": 0.00098096,
        "meta_mean_motion_ddot": 0,
        "tle_line1": "1 39111U 93036BUA 25335.95758740  .00098096  00000+0  56424-2 0  9993",
        "tle_line2": "2 39111  74.0059  63.5328 0010911  39.1207 321.0773 15.11912111 89826"
      },
      "geometry": {
        "type": "Point",
        "coordinates": [
          -148.5355055333164,
          -32.69537634775448
        ]
      }
    },
    {
      "type": "Feature",
      "properties": {
        "norad_id": 39546,
        "name": "COSMOS 2251 DEB",
        "group": "cosmos-2251-debris",
        "lat": -61.124483100216686,
        "lon": -31.452370596111418,
        "alt_km": 570.8897080065535,
        "timestamp": "2025-12-22T11:33:20.838200+00:00",
        "meta_object_name": "COSMOS 2251 DEB",
        "meta_object_id": "1993-036BUC",
        "meta_epoch": "2025-12-20T15:00:47.215872",
        "meta_mean_motion": 14.92249819,
        "meta_eccentricity": 0.0044301,
        "meta_inclination": 73.9978,
        "meta_ra_of_asc_node": 120.9229,
        "meta_arg_of_pericenter": 279.9237,
        "meta_mean_anomaly": 79.6947,
        "meta_ephemeris_type": 0,
        "meta_classification_type": "U",
        "meta_norad_cat_id": 39546,
        "meta_element_set_no": 999,
        "meta_rev_at_epoch": 64554,
        "meta_bstar": 0.00091336,
        "meta_mean_motion_dot": 9.469e-05,
        "meta_mean_motion_ddot": 0,
        "tle_line1": "1 39546U 93036BUC 25354.62554648  .00009469  00000+0  91336-3 0  9999",
        "tle_line2": "2 39546  73.9978 120.9229 0044301 279.9237  79.6947 14.92249819645543"
      },
      "geometry": {
        "type": "Point",
        "coordinates": [
          -31.452370596111418,
          -61.124483100216686
        ]
      }
    },
    {
      "type": "Feature",
      "properties": {
        "norad_id": 39547,
        "name": "COSMOS 2251 DEB",
        "group": "cosmos-2251-debris",
        "lat": -72.74472167113014,
        "lon": -69.05035246703616,
        "alt_km": 561.081886527465,
        "timestamp": "2025-12-22T11:33:20.838210+00:00",
        "meta_object_name": "COSMOS 2251 DEB",
        "meta_object_id": "1993-036BUD",
        "meta_epoch": "2025-12-19T07:21:14.962752",
        "meta_mean_motion": 15.03732917,
        "meta_eccentricity": 0.0005758,
        "meta_inclination": 74.0009,
        "meta_ra_of_asc_node": 4.9325,
        "meta_arg_of_pericenter": 3.3316,
        "meta_mean_anomaly": 11.6145,
        "meta_ephemeris_type": 0,
        "meta_classification_type": "U",
        "meta_norad_cat_id": 39547,
        "meta_element_set_no": 999,
        "meta_rev_at_epoch": 64124,
        "meta_bstar": 0.0019087,
        "meta_mean_motion_dot": 0.0002626,
        "meta_mean_motion_ddot": 0,
        "tle_line1": "1 39547U 93036BUD 25353.30642318  .00026260  00000+0  19087-2 0  9996",
        "tle_line2": "2 39547  74.0009   4.9325 0005758   3.3316  11.6145 15.03732917641247"
      },
      "geometry": {
        "type": "Point",
        "coordinates": [
          -69.05035246703616,
          -72.74472167113014
        ]
      }
    },
    {
      "type": "Feature",
      "properties": {
        "norad_id": 39553,
        "name": "COSMOS 2251 DEB",
        "group": "cosmos-2251-debris",
        "lat": 46.0096676304352,
        "lon": -29.597881305861854,
        "alt_km": 772.7812633914527,
        "timestamp": "2025-12-22T11:33:20.838220+00:00",
        "meta_object_name": "COSMOS 2251 DEB",
        "meta_object_id": "1993-036BUK",
        "meta_epoch": "2025-12-19T04:26:08.787552",
        "meta_mean_motion": 13.99893274,
        "meta_eccentricity": 0.02023146,
        "meta_inclination": 74.0301,
        "meta_ra_of_asc_node": 318.8543,
        "meta_arg_of_pericenter": 93.0274,
        "meta_mean_anomaly": 269.4029,
        "meta_ephemeris_type": 0,
        "meta_classification_type": "U",
        "meta_norad_cat_id": 39553,
        "meta_element_set_no": 999,
        "meta_rev_at_epoch": 75707,
        "meta_bstar": 0.00037697212,
        "meta_mean_motion_dot": 6.38e-06,
        "meta_mean_motion_ddot": 0,
        "tle_line1": "1 39553U 93036BUK 25353.18482393  .00000638  00000+0  37697-3 0  9993",
        "tle_line2": "2 39553  74.0301 318.8543 0202314  93.0274 269.4029 13.99893274757074"
      },
      "geometry": {
        "type": "Point",
        "coordinates": [
          -29.597881305861854,
          46.0096676304352
        ]
      }
    }
  ]
}